TYVAK-0130              
1 48606U 21041BF  26068.48452211  .00008857  00000+0  35198-3 0  9997
2 48606  52.9967 128.6030 0008953 215.1647 144.8760 15.26049141265157
STARLINK-31234          
1 59043U 24038W   26068.21569100  .00000239  00000+0  18224-4 0  9998
2 59043  43.0028  26.4213 0000775 289.2541  70.8227 15.27568027114610
